Sdr Stroemfjord, Greenland (BGSF) 67-01N 050-42W 53M
Mar 14, 2019 - 03:50 AM EDT / 2019.03.14 0750 UTC
Wind: from the ENE (070 degrees) at 9 MPH (8 KT):0
Sky conditions: overcast
Temperature: -2 F (-19 C)
Windchill: -18 F (-28 C):2
Dew Point: -11 F (-24 C)
Relative Humidity: 64%
Pressure (altimeter): 29.88 in. Hg (1012 hPa)
ob: BGSF 140750Z AUTO 07008KT 9999NDV OVC050/// M19/M24 Q1012
cycle: 8
