Station name not available
Aug 26, 2018 - 03:00 AM EDT / 2018.08.26 0700 UTC
Wind: from the W (260 degrees) at 12 MPH (10 KT):0
Visibility: greater than 7 mile(s):0
Sky conditions: mostly cloudy
Temperature: 78 F (26 C)
Dew Point: 66 F (19 C)
Relative Humidity: 65%
Pressure (altimeter): 29.85 in. Hg (1011 hPa)
ob: BONG 260700Z 26010KT 9999 SCT012 SCT018 BKN080 26/19 Q1011
cycle: 7
