Station name not available
Jan 28, 2011 - 08:56 AM EST / 2011.01.28 1356 UTC
Wind: Calm:0
Visibility: 3 mile(s):0
Sky conditions: overcast
Weather: mist
Temperature: 48 F (9 C)
Dew Point: 46 F (8 C)
Relative Humidity: 93%
Pressure (altimeter): 30.16 in. Hg (1021 hPa)
ob: CNUQ 281356Z AUTO 00000KT 3SM BR OVC005 09/08 A3016 RMK AO2 
cycle: 14
