Cape Peel West, N. W. T., Canada (CWPX) 69-02N 107-49W
Mar 14, 2019 - 03:00 AM EDT / 2019.03.14 0700 UTC
Wind: from the N (350 degrees) at 13 MPH (11 KT):0
Sky conditions: overcast
Temperature: -11 F (-24 C)
Windchill: -32 F (-36 C):2
Dew Point: -16 F (-27 C)
Relative Humidity: 76%
Pressure (altimeter): 30.17 in. Hg (1021 hPa)
ob: CWPX 140700Z AUTO 35011KT ////SM //// OVC070 M24/M27 A3017
cycle: 7
