Station name not available
Mar 14, 2019 - 04:00 AM EDT / 2019.03.14 0800 UTC
Wind: from the NW (310 degrees) at 7 MPH (6 KT) (direction variable):0
Visibility: 9 mile(s):0
Sky conditions: overcast
Weather: light snow
Temperature: 21 F (-6 C)
Windchill: 12 F (-11 C):1
Dew Point: 15 F (-9 C)
Relative Humidity: 79%
Pressure (altimeter): 29.96 in. Hg (1014 hPa)
ob: CYBQ 140800Z AUTO 31006KT 280V340 9SM -SN OVC015 M06/M09 A2996 RMK SLP172
cycle: 8
