Estevan, Sask., Canada (CYEN) 49-13N 102-58W 581M
Mar 14, 2019 - 04:00 AM EDT / 2019.03.14 0800 UTC
Wind: from the NNW (340 degrees) at 16 MPH (14 KT) gusting to 22 MPH (19 KT):0
Visibility: 9 mile(s):0
Sky conditions: partly cloudy
Temperature: 23 F (-5 C)
Windchill: 10 F (-12 C):1
Dew Point: 19 F (-7 C)
Relative Humidity: 85%
Pressure (altimeter): 29.98 in. Hg (1015 hPa)
ob: CYEN 140800Z AUTO 34014G19KT 9SM SCT230 M05/M07 A2998 RMK SLP183
cycle: 8
