Station name not available
Jan 09, 2012 - 07:15 AM EST / 2012.01.09 1215 UTC
Wind: from the S (170 degrees) at 12 MPH (10 KT):0
Visibility: 4 mile(s):0
Sky conditions: partly cloudy
Weather: thunder; Cumulonimbus clouds, towering cumulus clouds observed
Temperature: 71 F (22 C)
Dew Point: 59 F (15 C)
Relative Humidity: 64%
Pressure (altimeter): 30.12 in. Hg (1020 hPa)
ob: CYIB 091215Z 17010KT 7000 TS SCT020TCU FEW030CB SCT070 22/15 Q1020
cycle: 12
