Saint Catharines Airport, Canada (CYSN) 43-12N 079-10W
Mar 13, 2019 - 09:00 PM EDT / 2019.03.14 0100 UTC
Wind: from the E (090 degrees) at 3 MPH (3 KT):0
Visibility: 15 mile(s):0
Sky conditions: overcast
Temperature: 41 F (5 C)
Dew Point: 32 F (0 C)
Relative Humidity: 70%
Pressure (altimeter): 30.06 in. Hg (1017 hPa)
ob: CYSN 140100Z 09003KT 15SM OVC036 05/M00 A3006 RMK SC8 LAST STFD OBS/NEXT 141100 UTC SLP183
cycle: 1
