Nanisivik Airport , Canada (CYSR) 72-59N 084-38W
Jan 12, 2011 - 05:00 PM EST / 2011.01.12 2200 UTC
Wind: from the SW (220 degrees) at 3 MPH (3 KT):0
Visibility: 8 mile(s):0
Sky conditions: overcast
Weather: light snow
Temperature: -5 F (-21 C)
Dew Point: -13 F (-25 C)
Relative Humidity: 70%
Pressure (altimeter): 30.09 in. Hg (1018 hPa)
ob: CYSR 122200Z 22003KT 8SM -SN OVC014 M21/M25 A3009 RMK ST8 -20.4/-21.4/0.6/17/SNW CVR MUCH LOOSE/LAST OB SLP279
cycle: 22
