Whale Cove Airport, Canada (CYXN) 62-14N 092-36W
Mar 13, 2019 - 06:00 PM EDT / 2019.03.13 2200 UTC
Wind: from the NNE (020 degrees) at 9 MPH (8 KT):0
Visibility: 15 mile(s):0
Sky conditions: clear
Temperature: -2 F (-19 C)
Windchill: -18 F (-28 C):2
Dew Point: -7 F (-22 C)
Relative Humidity: 77%
Pressure (altimeter): 29.98 in. Hg (1015 hPa)
ob: CYXN 132200Z 02008KT 15SM SKC M19/M22 A2998 RMK SSS AFT 21UTC/6.3/LAST STFD OB/NXT141300Z SLP156
cycle: 22
