Abbotsford, B. C., Canada (CYXX) 49-02N 122-22W 58M
Mar 14, 2019 - 04:00 AM EDT / 2019.03.14 0800 UTC
Wind: from the N (360 degrees) at 6 MPH (5 KT):0
Visibility: 15 mile(s):0
Sky conditions: mostly cloudy
Temperature: 37 F (3 C)
Dew Point: 33 F (1 C)
Relative Humidity: 86%
Pressure (altimeter): 30.41 in. Hg (1029 hPa)
ob: CYXX 140800Z 36005KT 15SM SCT130 BKN220 03/01 A3041 RMK AC4CI3 SLP300
cycle: 8
