Cape Parry, N. W. T., Canada (CZCP) 70-06N 124-43W
Mar 14, 2019 - 04:00 AM EDT / 2019.03.14 0800 UTC
Wind: from the E (080 degrees) at 13 MPH (11 KT):0
Temperature: -14 F (-26 C)
Windchill: -36 F (-38 C):2
Dew Point: -22 F (-30 C)
Relative Humidity: 69%
Pressure (altimeter): 30.29 in. Hg (1025 hPa)
ob: CZCP 140800Z AUTO 08011KT ////SM //// NCD M26/M30 A3029
cycle: 8
