Djanet, Algeria (DAAJ) 24-33N 009-28E 1054M
Mar 14, 2019 - 04:00 AM EDT / 2019.03.14 0800 UTC
Wind: from the N (010 degrees) at 3 MPH (3 KT):0
Visibility: greater than 7 mile(s):0
Temperature: 53 F (12 C)
Dew Point: 21 F (-6 C)
Relative Humidity: 27%
Pressure (altimeter): 30.21 in. Hg (1023 hPa)
ob: DAAJ 140800Z 01003KT CAVOK 12/M06 Q1023
cycle: 8
