Tamanrasset / Aguenna, Algeria (DAAT) 22-49N 005-28E
Mar 14, 2019 - 04:00 AM EDT / 2019.03.14 0800 UTC
Wind: from the ENE (070 degrees) at 21 MPH (18 KT):0
Visibility: 4 mile(s):0
Temperature: 62 F (17 C)
Dew Point: 21 F (-6 C)
Relative Humidity: 20%
Pressure (altimeter): 30.21 in. Hg (1023 hPa)
ob: DAAT 140800Z 07018KT 8000 NSC 17/M06 Q1023
cycle: 8
