Tiaret, Algeria (DAOB) 35-15N 001-26E 1127M
Mar 14, 2019 - 04:00 AM EDT / 2019.03.14 0800 UTC
Wind: Calm:0
Visibility: greater than 7 mile(s):0
Temperature: 44 F (7 C)
Dew Point: 35 F (2 C)
Relative Humidity: 70%
Pressure (altimeter): 30.36 in. Hg (1028 hPa)
ob: DAOB 140800Z 00000KT CAVOK 07/02 Q1028
cycle: 8
