Station name not available
Nov 19, 2017 - 01:00 PM EST / 2017.11.19 1800 UTC
Wind: Calm:0
Temperature: 57 F (14 C)
Dew Point: 42 F (6 C)
Relative Humidity: 58%
Pressure (altimeter): 30.12 in. Hg (1020 hPa)
ob: DATD 191800Z AUTO 00000KT NCD 14/06 Q1020
cycle: 18
