Station name not available
Mar 04, 2019 - 07:00 PM EST / 2019.03.05 0000 UTC
Wind: Calm:0
Visibility: greater than 7 mile(s):0
Sky conditions: mostly clear
Temperature: 80 F (27 C)
Dew Point: 78 F (26 C)
Relative Humidity: 94%
Pressure (altimeter): 29.94 in. Hg (1014 hPa)
ob: DNBE 050000Z 00000KT 9999 FEW008 27/26 Q1014
cycle: 0
