Station name not available
Jun 24, 2017 - 11:00 PM EDT / 2017.06.25 0300 UTC
Wind: Calm:0
Visibility: greater than 7 mile(s):0
Temperature: 75 F (24 C)
Dew Point: 62 F (17 C)
Relative Humidity: 64%
Pressure (altimeter): 30.09 in. Hg (1019 hPa)
ob: DQTK 250300Z 00000KT CAVOK 24/17 Q1019
cycle: 3
