Station name not available
May 26, 2017 - 03:30 PM EDT / 2017.05.26 1930 UTC
Wind: from the NNE (020 degrees) at 8 MPH (7 KT) (direction variable):0
Visibility: greater than 7 mile(s):0
Sky conditions: mostly clear
Temperature: 68 F (20 C)
Dew Point: 59 F (15 C)
Relative Humidity: 72%
Pressure (altimeter): 29.97 in. Hg (1015 hPa)
ob: DTDA 261930Z 02007KT 340V060 9999 FEW026 20/15 Q1015 NOSIG
cycle: 19
