Station name not available
Aug 20, 2017 - 01:00 AM EDT / 2017.08.20 0500 UTC
Wind: Calm:0
Temperature: 78 F (26 C)
Dew Point: 71 F (22 C)
Relative Humidity: 78%
Pressure (altimeter): 29.97 in. Hg (1015 hPa)
ob: DTHK 200500Z AUTO 00000KT NCD 26/22 Q1015
cycle: 5
