Station name not available
Mar 14, 2019 - 04:00 AM EDT / 2019.03.14 0800 UTC
Wind: from the NW (320 degrees) at 28 MPH (24 KT):0
Visibility: greater than 7 mile(s):0
Sky conditions: partly cloudy
Temperature: 57 F (14 C)
Dew Point: 41 F (5 C)
Relative Humidity: 54%
Pressure (altimeter): 30.15 in. Hg (1021 hPa)
ob: DTNH 140800Z 32024KT 9999 SCT026 14/05 Q1021
cycle: 8
