Station name not available
Jun 20, 2018 - 02:00 PM EDT / 2018.06.20 1800 UTC
Wind: from the E (080 degrees) at 2 MPH (2 KT):0
Visibility: greater than 7 mile(s):0
Sky conditions: partly cloudy
Weather: Cumulonimbus clouds observed
Temperature: 82 F (28 C)
Dew Point: 60 F (16 C)
Relative Humidity: 48%
Pressure (altimeter): 30.03 in. Hg (1017 hPa)
ob: DTPK 201800Z 08002KT 9999 SCT023 FEW033CB 28/16 Q1017 CB/W
cycle: 18
