Heringsdorf, Germany (EDAH) 53-53N 014-09E
Mar 10, 2019 - 11:50 AM EDT / 2019.03.10 1550 UTC
Wind: from the W (270 degrees) at 6 MPH (5 KT) (direction variable):0
Visibility: greater than 7 mile(s):0
Temperature: 44 F (7 C)
Dew Point: 32 F (0 C)
Relative Humidity: 60%
Pressure (altimeter): 29.41 in. Hg (0996 hPa)
ob: EDAH 101550Z 27005KT 250V320 CAVOK 07/M00 Q0996
cycle: 16
