Frankfurt / M-Flughafen, Germany (EDDF) 50-03N 008-36E 113M
Mar 14, 2019 - 03:50 AM EDT / 2019.03.14 0750 UTC
Wind: from the SSW (210 degrees) at 17 MPH (15 KT):0
Visibility: greater than 7 mile(s):0
Sky conditions: mostly clear
Weather: light rain
Temperature: 44 F (7 C)
Dew Point: 35 F (2 C)
Relative Humidity: 70%
Pressure (altimeter): 29.80 in. Hg (1009 hPa)
ob: EDDF 140750Z 21015KT 9999 -RA FEW020 07/02 Q1009 BECMG 22015G25KT
cycle: 8
