Muenster / Osnabrueck, Germany (EDDG) 52-08N 007-42E 53M
Mar 14, 2019 - 03:50 AM EDT / 2019.03.14 0750 UTC
Wind: from the SSW (210 degrees) at 18 MPH (16 KT):0
Visibility: greater than 7 mile(s):0
Sky conditions: mostly cloudy
Weather: light rain
Temperature: 42 F (6 C)
Dew Point: 39 F (4 C)
Relative Humidity: 86%
Pressure (altimeter): 29.56 in. Hg (1001 hPa)
ob: EDDG 140750Z 21016KT 9999 -RA FEW010 BKN014 BKN017 06/04 Q1001 BECMG 22015G25KT
cycle: 8
