Munchen, Germany (EDDM) 48-21N 011-47E
Mar 14, 2019 - 03:50 AM EDT / 2019.03.14 0750 UTC
Wind: from the WSW (250 degrees) at 23 MPH (20 KT) gusting to 35 MPH (30 KT):0
Visibility: greater than 7 mile(s):0
Sky conditions: partly cloudy
Weather: light rain
Temperature: 41 F (5 C)
Dew Point: 35 F (2 C)
Relative Humidity: 80%
Pressure (altimeter): 29.91 in. Hg (1013 hPa)
ob: EDDM 140750Z 25020G30KT 9999 -RA FEW016 SCT025 05/02 Q1013 NOSIG
cycle: 8
