Hessen, Germany (EDGS) 50-42-28N 008-04-59E
Mar 14, 2019 - 03:50 AM EDT / 2019.03.14 0750 UTC
Wind: from the SW (230 degrees) at 14 MPH (12 KT) (direction variable):0
Visibility: 3 mile(s):0
Sky conditions: overcast
Weather: light snow, rain
Temperature: 35 F (2 C)
Windchill: 26 F (-3 C):1
Dew Point: 35 F (2 C)
Relative Humidity: 100%
Pressure (altimeter): 29.68 in. Hg (1005 hPa)
ob: EDGS 140750Z 23012KT 200V260 6000 -SNRA OVC004 02/02 Q1005
cycle: 8
