Jersey Airport, United Kingdom (EGJJ) 49-13N 002-12W 0M
Mar 14, 2019 - 04:20 AM EDT / 2019.03.14 0820 UTC
Wind: from the W (260 degrees) at 31 MPH (27 KT) gusting to 43 MPH (37 KT):0
Visibility: 4 mile(s):0
Sky conditions: mostly cloudy
Weather: light rain
Temperature: 48 F (9 C)
Dew Point: 46 F (8 C)
Relative Humidity: 93%
Pressure (altimeter): 29.94 in. Hg (1014 hPa)
ob: EGJJ 140820Z 26027G37KT 7000 -RA FEW008 SCT010 BKN012 09/08 Q1014
cycle: 8
