Spadeadam, United Kingdom (EGOM) 55-03N 002-33W
Mar 14, 2019 - 03:50 AM EDT / 2019.03.14 0750 UTC
Wind: from the W (260 degrees) at 22 MPH (19 KT):0
Visibility: greater than 7 mile(s):0
Sky conditions: mostly cloudy
Temperature: 41 F (5 C)
Dew Point: 39 F (4 C)
Relative Humidity: 93%
Pressure (altimeter): 29.26 in. Hg (0991 hPa)
ob: EGOM 140750Z AUTO 26019KT 9999 BKN011/// 05/04 Q0991 RERA
cycle: 8
