Edinburgh Airport, United Kingdom (EGPH) 55-57N 003-21W 0M
Mar 14, 2019 - 04:20 AM EDT / 2019.03.14 0820 UTC
Wind: from the WSW (250 degrees) at 15 MPH (13 KT):0
Visibility: greater than 7 mile(s):0
Sky conditions: mostly clear
Weather: light rain
Temperature: 44 F (7 C)
Dew Point: 41 F (5 C)
Relative Humidity: 87%
Pressure (altimeter): 29.23 in. Hg (0990 hPa)
ob: EGPH 140820Z 25013KT 9999 -RA FEW022 07/05 Q0990
cycle: 8
