Station name not available
Oct 17, 2014 - 05:50 AM EDT / 2014.10.17 0950 UTC
Wind: from the ESE (110 degrees) at 14 MPH (12 KT):0
Visibility: greater than 7 mile(s):0
Sky conditions: mostly clear
Temperature: 51 F (11 C)
Dew Point: 41 F (5 C)
Relative Humidity: 66%
Pressure (altimeter): 29.83 in. Hg (1010 hPa)
ob: EGRG 170950Z AUTO 11012KT 9999 FEW025/// 11/05 Q1010 W///S3
cycle: 10
