Station name not available
Oct 17, 2014 - 05:50 AM EDT / 2014.10.17 0950 UTC
Wind: from the S (170 degrees) at 12 MPH (10 KT) (direction variable):0
Visibility: greater than 7 mile(s):0
Temperature: 50 F (10 C)
Dew Point: 41 F (5 C)
Relative Humidity: 71%
Pressure (altimeter): 29.83 in. Hg (1010 hPa)
ob: EGRL 170950Z AUTO 17010KT 130V220 9999 NCD 10/05 Q1010 W///S3
cycle: 10
