Cranfield, United Kingdom (EGTC) 52-04N 000-37W
Mar 14, 2019 - 04:20 AM EDT / 2019.03.14 0820 UTC
Wind: from the WSW (240 degrees) at 20 MPH (17 KT) gusting to 36 MPH (31 KT):0
Visibility: greater than 7 mile(s):0
Sky conditions: mostly cloudy
Temperature: 50 F (10 C)
Dew Point: 48 F (9 C)
Relative Humidity: 93%
Pressure (altimeter): 29.47 in. Hg (0998 hPa)
ob: EGTC 140820Z 24017G31KT 9999 BKN012 10/09 Q0998
cycle: 8
