Disforth, United Kingdom (EGXD) 54-08N 001-25W 0M
Jun 06, 2016 - 05:50 AM EDT / 2016.06.06 0950 UTC
Wind: from the SSE (160 degrees) at 5 MPH (4 KT):0
Visibility: greater than 7 mile(s):0
Temperature: 64 F (18 C)
Dew Point: 51 F (11 C)
Relative Humidity: 63%
Pressure (altimeter): 30.21 in. Hg (1023 hPa)
ob: EGXD 060950Z AUTO 16004KT 9999 // NCD 18/11 Q1023
cycle: 10
