Linton-On-Ouse, United Kingdom (EGXU) 54-03N 001-15W 0M
Mar 14, 2019 - 03:50 AM EDT / 2019.03.14 0750 UTC
Wind: from the WNW (290 degrees) at 25 MPH (22 KT):0
Visibility: greater than 7 mile(s):0
Sky conditions: partly cloudy
Temperature: 50 F (10 C)
Dew Point: 42 F (6 C)
Relative Humidity: 76%
Pressure (altimeter): 29.29 in. Hg (0992 hPa)
ob: EGXU 140750Z AUTO 29022KT 9999 // SCT035/// 10/06 Q0992
cycle: 8
