Marham, United Kingdom (EGYM) 52-39N 000-34E 0M
Mar 14, 2019 - 03:50 AM EDT / 2019.03.14 0750 UTC
Wind: from the WSW (240 degrees) at 26 MPH (23 KT):0
Visibility: greater than 7 mile(s):0
Sky conditions: mostly cloudy
Temperature: 48 F (9 C)
Dew Point: 44 F (7 C)
Relative Humidity: 87%
Pressure (altimeter): 29.41 in. Hg (0996 hPa)
ob: EGYM 140750Z 24023KT 9999 FEW012 SCT015 BKN050 09/07 Q0996 WHT
cycle: 8
