Station name not available
Mar 14, 2019 - 03:55 AM EDT / 2019.03.14 0755 UTC
Wind: from the SW (230 degrees) at 41 MPH (36 KT):0
Temperature: 44 F (7 C)
Dew Point: 42 F (6 C)
Relative Humidity: 93%
Pressure (altimeter): 29.32 in. Hg (0993 hPa)
ob: EHJR 140755Z AUTO 23036KT //// // ///////// 07/06 Q0993 RE// W07/H28
cycle: 8
