Station name not available
Mar 14, 2019 - 03:55 AM EDT / 2019.03.14 0755 UTC
Wind: from the SW (220 degrees) at 44 MPH (38 KT):0
Visibility: 3 mile(s):0
Sky conditions: mostly cloudy
Weather: light rain
Temperature: 42 F (6 C)
Dew Point: 42 F (6 C)
Relative Humidity: 100%
Pressure (altimeter): 29.35 in. Hg (0994 hPa)
ob: EHKV 140755Z AUTO 22038KT 6000 -RA FEW007 SCT010 BKN013 06/06 Q0994 RERA REDZ W///H///
cycle: 8
