Station name not available
Mar 14, 2019 - 03:55 AM EDT / 2019.03.14 0755 UTC
Wind: from the SW (220 degrees) at 29 MPH (25 KT):0
Visibility: 3 mile(s):0
Sky conditions: mostly cloudy
Weather: light rain
Temperature: 42 F (6 C)
Dew Point: 41 F (5 C)
Relative Humidity: 93%
Pressure (altimeter): 29.38 in. Hg (0995 hPa)
ob: EHMA 140755Z AUTO 22025KT 6000 -RA FEW008 SCT011 BKN019 06/05 Q0995 RERA REDZ W///H///
cycle: 8
