Billund Lufthavn, Denmark (EKBI) 55-44N 009-10E 79M
Mar 14, 2019 - 04:20 AM EDT / 2019.03.14 0820 UTC
Wind: from the SW (220 degrees) at 14 MPH (12 KT):0
Visibility: greater than 7 mile(s):0
Sky conditions: overcast
Weather: light rain
Temperature: 41 F (5 C)
Dew Point: 39 F (4 C)
Relative Humidity: 93%
Pressure (altimeter): 29.26 in. Hg (0991 hPa)
ob: EKBI 140820Z AUTO 22012KT 9999 -RA OVC010/// 05/04 Q0991
cycle: 8
