Bergen / Flesland, Norway (ENBR) 60-17N 005-14E 50M
Mar 14, 2019 - 04:20 AM EDT / 2019.03.14 0820 UTC
Wind: from the E (100 degrees) at 6 MPH (5 KT):0
Visibility: 3 mile(s):0
Sky conditions: mostly cloudy
Temperature: 35 F (2 C)
Windchill: 30 F (-1 C):1
Dew Point: 35 F (2 C)
Relative Humidity: 100%
Pressure (altimeter): 29.06 in. Hg (0984 hPa)
ob: ENBR 140820Z 10005KT 5000 FEW002 SCT007 BKN012 02/02 Q0984 TEMPO 3000 SHRA BKN007 RMK WIND 1200FT 12006KT
cycle: 8
