Heidrun, Norway (ENHE) 65-19-30N 002-19-36E
Mar 14, 2019 - 04:20 AM EDT / 2019.03.14 0820 UTC
Wind: from the E (100 degrees) at 14 MPH (12 KT):0
Visibility: greater than 7 mile(s):0
Sky conditions: mostly cloudy
Temperature: 39 F (4 C)
Dew Point: 33 F (1 C)
Relative Humidity: 80%
Pressure (altimeter): 29.00 in. Hg (0982 hPa)
ob: ENHE 140820Z 10012KT 9999 FEW010 SCT028 BKN045 04/01 Q0982 W///S4
cycle: 8
