Leknes, Norway (ENLK) 68-09N 013-37E 26M
Mar 14, 2019 - 04:20 AM EDT / 2019.03.14 0820 UTC
Wind: from the NNE (030 degrees) at 7 MPH (6 KT):0
Visibility: 4 mile(s):0
Sky conditions: mostly cloudy
Weather: light snow
Temperature: 28 F (-2 C)
Windchill: 21 F (-6 C):1
Dew Point: 24 F (-4 C)
Relative Humidity: 86%
Pressure (altimeter): 29.15 in. Hg (0987 hPa)
ob: ENLK 140820Z 03006KT 7000 -SN SCT020 BKN030 M02/M04 Q0987
cycle: 8
