Torp, Norway (ENTO) 59-12N 010-16E 88M
Mar 14, 2019 - 04:20 AM EDT / 2019.03.14 0820 UTC
Wind: Calm:0
Visibility: greater than 7 mile(s):0
Weather: fog in the vicinity
Temperature: 32 F (0 C)
Dew Point: 30 F (-1 C)
Relative Humidity: 92%
Pressure (altimeter): 29.15 in. Hg (0987 hPa)
ob: ENTO 140820Z 00000KT 9999 VCFG NSC 00/M01 Q0987 NOSIG
cycle: 8
