Station name not available
Mar 13, 2019 - 10:50 AM EDT / 2019.03.13 1450 UTC
Wind: from the SE (130 degrees) at 17 MPH (15 KT):0
Visibility: greater than 7 mile(s):0
Sky conditions: partly cloudy
Temperature: 33 F (1 C)
Windchill: 23 F (-5 C):1
Dew Point: 24 F (-4 C)
Relative Humidity: 69%
Pressure (altimeter): 29.29 in. Hg (0992 hPa)
ob: ENVR 131450Z 13015KT 9999 FEW032 SCT082 01/M04 Q0992
cycle: 15
