Station name not available
Mar 16, 2008 - 02:00 AM EST / 2008.03.16 0700 UTC
Wind: from the SSE (160 degrees) at 5 MPH (4 KT):0
Visibility: greater than 7 mile(s):0
Sky conditions: clear
Temperature: 78 F (26 C)
Dew Point: 23 F (-5 C)
Relative Humidity: 12%
Pressure (altimeter): 29.97 in. Hg (1015 hPa)
ob: EQDL 160700Z 16004KT 9999 SKC 26/M05 Q1015 RMK A2997
cycle: 7
