Vasteras / Hasslo, Sweden (ESOW) 59-35N 016-38E 31M
Mar 14, 2019 - 04:20 AM EDT / 2019.03.14 0820 UTC
Wind: from the SSE (160 degrees) at 8 MPH (7 KT):0
Visibility: greater than 7 mile(s):0
Sky conditions: mostly cloudy
Weather: light drizzle
Temperature: 39 F (4 C)
Dew Point: 35 F (2 C)
Relative Humidity: 86%
Pressure (altimeter): 29.21 in. Hg (0989 hPa)
ob: ESOW 140820Z 16007KT 9999 -DZ BKN006 BKN010 04/02 Q0989 R19/290195
cycle: 8
