Hohn, Germany (ETNH) 54-19N 009-32E 17M
Mar 14, 2019 - 04:20 AM EDT / 2019.03.14 0820 UTC
Wind: from the SW (230 degrees) at 14 MPH (12 KT) gusting to 25 MPH (22 KT):0
Visibility: 4 mile(s):0
Sky conditions: mostly cloudy
Weather: light rain
Temperature: 42 F (6 C)
Dew Point: 37 F (3 C)
Relative Humidity: 81%
Pressure (altimeter): 29.38 in. Hg (0995 hPa)
ob: ETNH 140820Z 23012G22KT 7000 -RA FEW010 BKN019 06/03 Q0995 WHT WHT TEMPO GRN
cycle: 8
