Palanga Intl., Lithuania (EYPA) 55-55-12N 021-03E
Mar 14, 2019 - 04:20 AM EDT / 2019.03.14 0820 UTC
Wind: from the S (170 degrees) at 13 MPH (11 KT):0
Visibility: greater than 7 mile(s):0
Sky conditions: mostly cloudy
Temperature: 41 F (5 C)
Dew Point: 33 F (1 C)
Relative Humidity: 75%
Pressure (altimeter): 29.38 in. Hg (0995 hPa)
ob: EYPA 140820Z 17011KT 9999 FEW026 BKN040 05/01 Q0995 R19/2///95
cycle: 8
