Hoedspruit, South Africa (FAHS) 24-22S 031-02E 500M
Mar 14, 2019 - 04:00 AM EDT / 2019.03.14 0800 UTC
Wind: from the SSE (150 degrees) at 12 MPH (10 KT):0
Temperature: 80 F (27 C)
Dew Point: 64 F (18 C)
Relative Humidity: 57%
Pressure (altimeter): 30.09 in. Hg (1019 hPa)
ob: FAHS 140800Z AUTO 15010KT //// // ////// 27/18 Q1019
cycle: 8
