Lanseria, South Africa (FALA) 25-56S 027-56E
Mar 14, 2019 - 04:27 AM EDT / 2019.03.14 0827 UTC
Wind: Variable at 3 MPH (3 KT):0
Visibility: greater than 7 mile(s):0
Sky conditions: mostly clear
Temperature: 80 F (27 C)
Dew Point: 60 F (16 C)
Relative Humidity: 50%
Pressure (altimeter): 30.24 in. Hg (1024 hPa)
ob: FALA 140827Z VRB03KT 9999 FEW025 27/16 Q1024 NOSIG
cycle: 8
