Station name not available
Mar 14, 2019 - 04:00 AM EDT / 2019.03.14 0800 UTC
Wind: from the S (170 degrees) at 3 MPH (3 KT) (direction variable):0
Visibility: 5 mile(s):0
Sky conditions: mostly cloudy
Temperature: 77 F (25 C)
Dew Point: 71 F (22 C)
Relative Humidity: 83%
Pressure (altimeter): 30.06 in. Hg (1018 hPa)
ob: FALE 140800Z 17003KT 140V200 9000 FEW009 BKN012 25/22 Q1018 NOSIG
cycle: 8
