Station name not available
Aug 13, 2017 - 06:00 AM EDT / 2017.08.13 1000 UTC
Wind: from the ENE (070 degrees) at 12 MPH (10 KT):0
Visibility: greater than 7 mile(s):0
Temperature: 80 F (27 C)
Dew Point: 37 F (3 C)
Relative Humidity: 21%
Pressure (altimeter): 30.24 in. Hg (1024 hPa)
ob: FBKR 131000Z 07010KT CAVOK 27/03 Q1024
cycle: 10
