Station name not available
Nov 19, 2015 - 03:00 PM EST / 2015.11.19 2000 UTC
Wind: from the SSW (200 degrees) at 9 MPH (8 KT):0
Visibility: 4 mile(s):0
Sky conditions: partly cloudy
Weather: Cumulonimbus clouds observed
Temperature: 80 F (27 C)
Dew Point: 77 F (25 C)
Relative Humidity: 88%
Pressure (altimeter): 29.88 in. Hg (1012 hPa)
ob: FCPQ 192000Z 20008KT 8000 SCT010 SCT023 FEW030CB 27/25 Q1012 NOSIG
cycle: 20
