Station name not available
Mar 14, 2019 - 03:00 AM EDT / 2019.03.14 0700 UTC
Wind: from the S (180 degrees) at 5 MPH (4 KT):0
Temperature: 80 F (27 C)
Dew Point: 68 F (20 C)
Relative Humidity: 65%
Pressure (altimeter): 30.39 in. Hg (1029 hPa)
ob: FDMY 140700Z AUTO 18004KT //// // ////// 27/20 Q1029
cycle: 7
