Fascene Nossi-Be , Madagascar (FMNN) 13-19S 048-19E 9M
Mar 14, 2019 - 03:00 AM EDT / 2019.03.14 0700 UTC
Wind: from the NNE (030 degrees) at 7 MPH (6 KT):0
Visibility: greater than 7 mile(s):0
Sky conditions: mostly cloudy
Temperature: 87 F (31 C)
Heat index: 99.7 F (37.6 C):1
Dew Point: 78 F (26 C)
Relative Humidity: 74%
Pressure (altimeter): 29.94 in. Hg (1014 hPa)
ob: FMNN 140700Z 03006KT 9999 BKN020 31/26 Q1014
cycle: 7
