Station name not available
Mar 14, 2019 - 04:00 AM EDT / 2019.03.14 0800 UTC
Wind: from the E (080 degrees) at 5 MPH (4 KT):0
Visibility: greater than 7 mile(s):0
Sky conditions: partly cloudy
Temperature: 77 F (25 C)
Dew Point: 64 F (18 C)
Relative Humidity: 65%
Pressure (altimeter): 30.12 in. Hg (1020 hPa)
ob: FNUE 140800Z 08004KT 9999 SCT040 25/18 Q1020
cycle: 8
