Station name not available
Feb 28, 2016 - 08:00 AM EST / 2016.02.28 1300 UTC
Wind: from the SSE (160 degrees) at 8 MPH (7 KT) (direction variable):0
Visibility: greater than 7 mile(s):0
Sky conditions: mostly cloudy
Weather: Cumulonimbus clouds observed
Temperature: 89 F (32 C)
Heat index: 98.4 F (36.9 C):1
Dew Point: 75 F (24 C)
Relative Humidity: 62%
Pressure (altimeter): 29.85 in. Hg (1011 hPa)
ob: FQQM 281300Z 16007KT 110V230 9999 SCT020 FEW025CB BKN/// 32/24 Q1011
cycle: 13
