Station name not available
Nov 29, 2015 - 01:00 AM EST / 2015.11.29 0600 UTC
Wind: from the S (190 degrees) at 6 MPH (5 KT):0
Temperature: 62 F (17 C)
Dew Point: 51 F (11 C)
Relative Humidity: 67%
Pressure (altimeter): 29.97 in. Hg (1015 hPa)
ob: FYOG 290600Z AUTO 19005KT //// // ////// 17/11 Q1015
cycle: 6
