Station name not available
Mar 14, 2019 - 04:00 AM EDT / 2019.03.14 0800 UTC
Wind: from the N (350 degrees) at 6 MPH (5 KT):0
Visibility: greater than 7 mile(s):0
Temperature: 78 F (26 C)
Dew Point: 48 F (9 C)
Relative Humidity: 34%
Pressure (altimeter): 30.24 in. Hg (1024 hPa)
ob: FYWE 140800Z 35005KT CAVOK 26/09 Q1024
cycle: 8
