Station name not available
Mar 22, 2017 - 03:50 AM EDT / 2017.03.22 0750 UTC
Wind: from the SSE (160 degrees) at 15 MPH (13 KT):0
Visibility: greater than 7 mile(s):0
Sky conditions: mostly clear
Temperature: 80 F (27 C)
Dew Point: 71 F (22 C)
Relative Humidity: 74%
Pressure (altimeter): 29.94 in. Hg (1014 hPa)
ob: GAAW 220750Z 16013KT 9999 FEW018 27/22 Q1014 BLU NOSIG
cycle: 8
