Station name not available
Mar 16, 2017 - 09:00 AM EDT / 2017.03.16 1300 UTC
Wind: Calm:0
Visibility: greater than 7 mile(s):0
Sky conditions: partly cloudy
Temperature: 91 F (33 C)
Heat index: 97.5 F (36.4 C):1
Dew Point: 71 F (22 C)
Relative Humidity: 52%
Pressure (altimeter): 29.77 in. Hg (1008 hPa)
ob: GCBB 161300Z 00000KT 9999 SCT018 33/22 Q1008 NOSIG
cycle: 13
