La Palma / Aeropuerto, Spain (GCLA) 28-37N 017-45W 31M
Mar 14, 2019 - 04:30 AM EDT / 2019.03.14 0830 UTC
Wind: from the NNE (030 degrees) at 10 MPH (9 KT):0
Visibility: greater than 7 mile(s):0
Sky conditions: mostly cloudy
Temperature: 66 F (19 C)
Dew Point: 55 F (13 C)
Relative Humidity: 68%
Pressure (altimeter): 30.24 in. Hg (1024 hPa)
ob: GCLA 140830Z 03009KT 9999 SCT025 BKN035 19/13 Q1024
cycle: 8
