Station name not available
Oct 21, 2016 - 08:00 AM EDT / 2016.10.21 1200 UTC
Wind: from the WSW (250 degrees) at 9 MPH (8 KT) (direction variable):0
Visibility: 3 mile(s):0
Temperature: 75 F (24 C)
Dew Point: 60 F (16 C)
Relative Humidity: 60%
Pressure (altimeter): 29.91 in. Hg (1013 hPa)
ob: GMAE 211200Z 25008KT 200V280 6000 NSC 24/16 Q1013 NOSIG
cycle: 12
