Tan-Tan, Morocco (GMAT) 28-27N 011-09W 200M
Mar 14, 2019 - 04:00 AM EDT / 2019.03.14 0800 UTC
Wind: from the N (360 degrees) at 7 MPH (6 KT):0
Visibility: 3 mile(s):0
Sky conditions: overcast
Temperature: 59 F (15 C)
Dew Point: 55 F (13 C)
Relative Humidity: 87%
Pressure (altimeter): 30.18 in. Hg (1022 hPa)
ob: GMAT 140800Z 36006KT 6000 OVC016 15/13 Q1022 NOSIG
cycle: 8
