Station name not available
Nov 13, 2016 - 12:00 PM EST / 2016.11.13 1700 UTC
Wind: from the E (100 degrees) at 12 MPH (10 KT):0
Visibility: greater than 7 mile(s):0
Sky conditions: mostly clear
Temperature: 80 F (27 C)
Dew Point: 64 F (18 C)
Relative Humidity: 57%
Pressure (altimeter): 29.91 in. Hg (1013 hPa)
ob: GMCH 131700Z 10010KT 9999 FEW020 27/18 Q1013 NOSIG
cycle: 17
