Station name not available
Mar 14, 2019 - 04:00 AM EDT / 2019.03.14 0800 UTC
Wind: from the SW (220 degrees) at 3 MPH (3 KT):0
Visibility: greater than 7 mile(s):0
Temperature: 51 F (11 C)
Dew Point: 50 F (10 C)
Relative Humidity: 93%
Pressure (altimeter): 30.24 in. Hg (1024 hPa)
ob: GMMD 140800Z 22003KT CAVOK 11/10 Q1024 NOSIG
cycle: 8
