Station name not available
Mar 13, 2019 - 04:49 AM EDT / 2019.03.13 0849 UTC
Wind: from the WSW (240 degrees) at 3 MPH (3 KT) (direction variable):0
Visibility: 3 mile(s):0
Sky conditions: mostly cloudy
Temperature: 62 F (17 C)
Dew Point: 59 F (15 C)
Relative Humidity: 88%
Pressure (altimeter): 30.33 in. Hg (1027 hPa)
ob: GMMP 130849Z 24003KT 210V270 5000 SCT010 BKN016 17/15 Q1027 NOSIG
cycle: 9
