Station name not available
Sep 24, 2017 - 02:00 AM EDT / 2017.09.24 0600 UTC
Wind: from the ESE (120 degrees) at 7 MPH (6 KT):0
Visibility: greater than 7 mile(s):0
Sky conditions: partly cloudy
Temperature: 78 F (26 C)
Dew Point: 69 F (21 C)
Relative Humidity: 73%
Pressure (altimeter): 30.06 in. Hg (1018 hPa)
ob: GMMT 240600Z 12006KT 9999 SCT017 26/21 Q1018 NOSIG
cycle: 6
