Nador/Arwi, Morocco (GMMW) 34-59-20N 003-01-42W
Mar 14, 2019 - 04:00 AM EDT / 2019.03.14 0800 UTC
Wind: Variable at 2 MPH (2 KT):0
Visibility: greater than 7 mile(s):0
Sky conditions: mostly clear
Temperature: 53 F (12 C)
Dew Point: 42 F (6 C)
Relative Humidity: 66%
Pressure (altimeter): 30.33 in. Hg (1027 hPa)
ob: GMMW 140800Z VRB02KT 9999 FEW011 12/06 Q1027 NOSIG
cycle: 8
