Ziguinchor, Senegal (GOGG) 12-33N 016-16W 23M
Mar 14, 2019 - 04:00 AM EDT / 2019.03.14 0800 UTC
Wind: from the N (010 degrees) at 7 MPH (6 KT):0
Visibility: 2 mile(s):0
Weather: widespread dust
Temperature: 75 F (24 C)
Dew Point: 42 F (6 C)
Relative Humidity: 31%
Pressure (altimeter): 29.85 in. Hg (1011 hPa)
ob: GOGG 140800Z 01006KT 4000 DU NSC 24/06 Q1011
cycle: 8
