Station name not available
Dec 03, 2012 - 12:00 PM EST / 2012.12.03 1700 UTC
Wind: from the ENE (060 degrees) at 5 MPH (4 KT):0
Visibility: greater than 7 mile(s):0
Temperature: 80 F (27 C)
Dew Point: 57 F (14 C)
Relative Humidity: 44%
Pressure (altimeter): 29.85 in. Hg (1011 hPa)
ob: GOGT 031700Z 06004KT CAVOK 27/14 Q1011
cycle: 17
