Station name not available
Jun 25, 2015 - 04:00 AM EDT / 2015.06.25 0800 UTC
Wind: from the W (270 degrees) at 9 MPH (8 KT):0
Visibility: greater than 7 mile(s):0
Sky conditions: partly cloudy
Temperature: 84 F (29 C)
Dew Point: 71 F (22 C)
Relative Humidity: 65%
Pressure (altimeter): 30.00 in. Hg (1016 hPa)
ob: GOOT 250800Z 27008KT 9999 FEW013 SCT130 29/22 Q1016
cycle: 8
