Kedougou, Senegal (GOTK) 12-34N 012-13W 167M
Mar 14, 2019 - 04:00 AM EDT / 2019.03.14 0800 UTC
Wind: Calm:0
Visibility: 2 mile(s):0
Weather: widespread dust
Temperature: 75 F (24 C)
Dew Point: 39 F (4 C)
Relative Humidity: 27%
Pressure (altimeter): 29.88 in. Hg (1012 hPa)
ob: GOTK 140800Z 00000KT 4000 DU 24/04 Q1012
cycle: 8
