Station name not available
Mar 05, 2015 - 06:00 AM EST / 2015.03.05 1100 UTC
Wind: from the WSW (240 degrees) at 5 MPH (4 KT):0
Visibility: 4 mile(s):0
Temperature: 86 F (30 C)
Dew Point: 55 F (13 C)
Relative Humidity: 35%
Pressure (altimeter): 29.88 in. Hg (1012 hPa)
ob: GOYY 051100Z 24004KT 8000 NSC 30/13 Q1012
cycle: 11
