Station name not available
Jan 21, 2016 - 01:00 AM EST / 2016.01.21 0600 UTC
Wind: from the ENE (060 degrees) at 22 MPH (19 KT):0
Visibility: 4 mile(s):0
Sky conditions: mostly clear
Temperature: 69 F (21 C)
Dew Point: 64 F (18 C)
Relative Humidity: 82%
Pressure (altimeter): 29.97 in. Hg (1015 hPa)
ob: GWSV 210600Z 06019KT 8000 FEW018 21/18 Q1015 NOSIG
cycle: 6
