Station name not available
May 08, 2016 - 11:00 PM EDT / 2016.05.09 0300 UTC
Wind: from the SW (220 degrees) at 7 MPH (6 KT):0
Sky conditions: overcast
Weather: Cumulonimbus clouds observed
Temperature: 71 F (22 C)
Dew Point: 71 F (22 C)
Relative Humidity: 100%
Pressure (altimeter): 29.94 in. Hg (1014 hPa)
ob: GZAA 090300Z 22006KT 8000-TSRA SCT014 FEW026CB OVC100 22/22 Q1014 BECMG NSW
cycle: 3
