Makale, Ethiopia (HAMK) 13-30N 039-29E 2212M
Feb 28, 2019 - 05:00 AM EST / 2019.02.28 1000 UTC
Wind: from the SSE (150 degrees) at 13 MPH (11 KT):0
Visibility: greater than 7 mile(s):0
Temperature: 78 F (26 C)
Dew Point: 41 F (5 C)
Relative Humidity: 25%
Pressure (altimeter): 30.27 in. Hg (1025 hPa)
ob: HAMK 281000Z 15011KT 9999 26/05 Q1025
cycle: 10
