Station name not available
Nov 08, 2016 - 05:00 AM EST / 2016.11.08 1000 UTC
Wind: from the NNE (030 degrees) at 5 MPH (4 KT):0
Sky conditions: mostly clear
Temperature: 75 F (24 C)
Dew Point: 50 F (10 C)
Relative Humidity: 41%
Pressure (altimeter): 30.12 in. Hg (1020 hPa)
ob: HEHS 081000Z 03004KT FEW200 24/10 Q1020 NOSIG
cycle: 10
