Station name not available
Nov 03, 2014 - 06:30 AM EST / 2014.11.03 1130 UTC
Wind: from the S (170 degrees) at 3 MPH (3 KT):0
Visibility: greater than 7 mile(s):0
Sky conditions: partly cloudy
Temperature: 71 F (22 C)
Dew Point: 62 F (17 C)
Relative Humidity: 73%
Pressure (altimeter): 30.15 in. Hg (1021 hPa)
ob: HSYR 031130Z 17003KT 9999 SCT023 SCT100 22/17 Q1021 NOSIG
cycle: 11
