Kilimanjaro Airport, Tanzania (HTKJ) 03-25S 037-04E 896M
Mar 14, 2019 - 04:00 AM EDT / 2019.03.14 0800 UTC
Wind: from the E (090 degrees) at 12 MPH (10 KT):0
Visibility: greater than 7 mile(s):0
Sky conditions: partly cloudy
Temperature: 80 F (27 C)
Dew Point: 64 F (18 C)
Relative Humidity: 57%
Pressure (altimeter): 30.03 in. Hg (1017 hPa)
ob: HTKJ 140800Z 09010KT 9999 SCT031 27/18 Q1017 NOSIG
cycle: 8
