Moshi, Tanzania (HTMS) 03-21S 037-20E 831M
Nov 14, 2018 - 07:00 AM EST / 2018.11.14 1200 UTC
Wind: from the E (090 degrees) at 12 MPH (10 KT):0
Visibility: greater than 7 mile(s):0
Sky conditions: partly cloudy
Temperature: 89 F (32 C)
Dew Point: 53 F (12 C)
Relative Humidity: 29%
Pressure (altimeter): 29.80 in. Hg (1009 hPa)
ob: HTMS 141200Z 09010KT 9999 SCT034 32/12 Q1009
cycle: 12
