Musoma, Tanzania (HTMU) 01-30S 033-48E 1147M
Mar 14, 2019 - 04:00 AM EDT / 2019.03.14 0800 UTC
Wind: from the ESE (120 degrees) at 8 MPH (7 KT):0
Visibility: greater than 7 mile(s):0
Sky conditions: mostly cloudy
Weather: Cumulonimbus clouds observed
Temperature: 78 F (26 C)
Dew Point: 59 F (15 C)
Relative Humidity: 50%
Pressure (altimeter): 30.06 in. Hg (1018 hPa)
ob: HTMU 140800Z 12007KT 9999 FEW024CB BKN270 26/15 Q1018
cycle: 8
