Station name not available
Dec 23, 2009 - 08:00 AM EST / 2009.12.23 1300 UTC
Wind: from the SW (230 degrees) at 5 MPH (4 KT):0
Visibility: greater than 7 mile(s):0
Sky conditions: mostly cloudy
Weather: Cumulonimbus clouds observed
Temperature: 82 F (28 C)
Dew Point: 60 F (16 C)
Relative Humidity: 48%
Pressure (altimeter): 29.91 in. Hg (1013 hPa)
ob: HUJU 231300Z 23004KT 9999 SCT025CB BKN300 28/16 Q1013
cycle: 13
