Soroti, Uganda (HUSO) 01-43N 033-37E 1123M
Jan 09, 2016 - 12:00 AM EST / 2016.01.09 0500 UTC
Wind: from the NNE (030 degrees) at 5 MPH (4 KT):0
Visibility: greater than 7 mile(s):0
Sky conditions: mostly cloudy
Temperature: 73 F (23 C)
Dew Point: 55 F (13 C)
Relative Humidity: 53%
Pressure (altimeter): 30.03 in. Hg (1017 hPa)
ob: HUSO 090500Z 03004KT 9999 FEW018 BKN100 23/13 Q1017
cycle: 5
