Station name not available
Aug 27, 2017 - 09:00 AM EDT / 2017.08.27 1300 UTC
Wind: from the SW (230 degrees) at 12 MPH (10 KT):0
Visibility: greater than 7 mile(s):0
Sky conditions: mostly clear
Weather: Cumulonimbus clouds observed
Temperature: 84 F (29 C)
Dew Point: 64 F (18 C)
Relative Humidity: 51%
Pressure (altimeter): 29.91 in. Hg (1013 hPa)
ob: IKKI 271300Z 23010KT 9999 FEW028CB 29/18 Q1013
cycle: 13
