Station name not available
Feb 06, 2009 - 11:22 PM EST / 2009.02.07 0422 UTC
Wind: from the SSW (200 degrees) at 8 MPH (7 KT):0
Visibility: 4 mile(s):0
Sky conditions: overcast
Weather: light snow; mist
Precipitation last hour: A trace
Temperature: 32 F (0 C)
Windchill: 24 F (-4 C):1
Dew Point: 30 F (-1 C)
Relative Humidity: 92%
Pressure (altimeter): 29.94 in. Hg (1013 hPa)
ob: JBJN 070422Z AUTO 20007KT 4SM -SN BR FEW001 BKN005 OVC010 00/M01 A2994 RMK AO2 P0000 
cycle: 4
