Station name not available
Mar 14, 2019 - 04:35 AM EDT / 2019.03.14 0835 UTC
Wind: from the W (280 degrees) at 7 MPH (6 KT):0
Visibility: 10 mile(s):0
Sky conditions: clear
Temperature: 49.5 F (9.7 C)
Dew Point: 34.9 F (1.6 C)
Relative Humidity: 56%
Pressure (altimeter): 29.74 in. Hg (1007 hPa)
ob: K0F2 140835Z AUTO 28006KT 10SM CLR 10/02 A2974 RMK AO2 T00970016
cycle: 8
