Station name not available
Mar 14, 2019 - 04:35 AM EDT / 2019.03.14 0835 UTC
Wind: Calm:0
Visibility: 10 mile(s):0
Sky conditions: overcast
Temperature: 35 F (2 C)
Dew Point: 35 F (2 C)
Relative Humidity: 100%
Pressure (altimeter): 30.39 in. Hg (1029 hPa)
ob: K0S9 140835Z AUTO 00000KT 10SM OVC041 02/02 A3039 RMK AO2
cycle: 8
