Franklin, Macon County Airport, NC, United States (K1A5) 35-13N 083-25W
Mar 14, 2019 - 04:40 AM EDT / 2019.03.14 0840 UTC
Wind: Calm:0
Visibility: 10 mile(s):0
Sky conditions: overcast
Temperature: 55.2 F (12.9 C)
Dew Point: 50.4 F (10.2 C)
Relative Humidity: 83%
Pressure (altimeter): 30.22 in. Hg (1023 hPa)
ob: K1A5 140840Z AUTO 00000KT 10SM OVC020 13/10 A3022 RMK AO2 T01290102
cycle: 8
