Station name not available
Aug 15, 2018 - 10:58 AM EDT / 2018.08.15 1458 UTC
Wind: from the WNW (300 degrees) at 5 MPH (4 KT):0
Visibility: 10 mile(s):0
Temperature: 64.2 F (17.9 C)
Dew Point: 56.3 F (13.5 C)
Relative Humidity: 75%
Pressure (altimeter): 30.1 in. Hg (1019 hPa)
Pressure tendency: 0.03 inches (0.9 hPa) higher than three hours ago
ob: K1OW 151458Z AUTO 30004KT 10SM M 18/14 A3010 RMK AO2 SLP141 T01790135 50009 
cycle: 15
