Station name not available
Mar 14, 2019 - 04:55 AM EDT / 2019.03.14 0855 UTC
Wind: Calm:0
Visibility: 10 mile(s):0
Sky conditions: clear
Temperature: 32 F (0 C)
Dew Point: 30 F (-1 C)
Relative Humidity: 92%
Pressure (altimeter): 30.21 in. Hg (1023 hPa)
ob: K22N 140855Z AUTO 00000KT 10SM CLR 00/M01 A3021 RMK AO2
cycle: 9
