Station name not available
Jul 01, 2018 - 12:55 PM EDT / 2018.07.01 1655 UTC
Wind: from the SE (140 degrees) at 9 MPH (8 KT) gusting to 16 MPH (14 KT):0
Visibility: 1 3/4 mile(s):0
Sky conditions: overcast
Temperature: 78 F (26 C)
Dew Point: 71 F (22 C)
Relative Humidity: 78%
Pressure (altimeter): 30.06 in. Hg (1017 hPa)
ob: K27K 011655Z AUTO 14008G14KT 1 3/4SM BKN032 BKN038 OVC046 26/22 A3006 RMK AO1 VIS 1/2V5
cycle: 17
