Heber, Heber City Municipal-Russ McDonald Field Airport, UT, United States (K36U) 40-28-55N 111-25-44W
Oct 11, 2017 - 08:50 PM EDT / 2017.10.12 0050 UTC
Wind: from the SSW (210 degrees) at 10 MPH (9 KT) gusting to 18 MPH (16 KT):0
Visibility: 10 mile(s):0
Sky conditions: clear
Temperature: 62 F (17 C)
Dew Point: 15 F (-9 C)
Relative Humidity: 15%
Pressure (altimeter): 29.87 in. Hg (1011 hPa)
ob: K36U 120050Z AUTO 21009G16KT 10SM CLR 17/M09 A2987 RMK AO2
cycle: 1
