Station name not available
Jun 05, 2008 - 07:54 AM EDT / 2008.06.05 1154 UTC
Wind: from the ESE (110 degrees) at 5 MPH (4 KT):0
Visibility: 1 mile(s):0
Sky conditions: overcast
Weather: mist
Temperature: 64 F (18 C)
Dew Point: 62 F (17 C)
Relative Humidity: 93%
Pressure (altimeter): 29.73 in. Hg (1006 hPa)
ob: K3FM 051154Z AUTO 11004KT 1SM BR BKN006 BKN031 OVC037 18/17 A2973 RMK AO2
cycle: 12
