Station name not available
Mar 14, 2019 - 04:55 AM EDT / 2019.03.14 0855 UTC
Wind: from the SE (140 degrees) at 7 MPH (6 KT):0
Visibility: 10 mile(s):0
Sky conditions: clear
Temperature: 55 F (13 C)
Dew Point: 55 F (13 C)
Relative Humidity: 100%
Pressure (altimeter): 30.14 in. Hg (1020 hPa)
ob: K6A2 140855Z AUTO 14006KT 10SM CLR 13/13 A3014 RMK AO2
cycle: 9
