Station name not available
Mar 14, 2019 - 04:55 AM EDT / 2019.03.14 0855 UTC
Wind: Calm:0
Visibility: 10 mile(s):0
Sky conditions: clear
Temperature: 35 F (2 C)
Dew Point: 35 F (2 C)
Relative Humidity: 100%
Pressure (altimeter): 30.39 in. Hg (1029 hPa)
ob: K6S2 140855Z AUTO 00000KT 10SM CLR 02/02 A3039 RMK AO2
cycle: 9
