Llano, Llano Municipal Airport, TX, United States (KAQO) 30-47-01N 098-39-43W
Mar 14, 2019 - 04:55 AM EDT / 2019.03.14 0855 UTC
Wind: from the WNW (290 degrees) at 12 MPH (10 KT) gusting to 18 MPH (16 KT):0
Visibility: 10 mile(s):0
Sky conditions: clear
Temperature: 64 F (18 C)
Dew Point: 33 F (1 C)
Relative Humidity: 31%
Pressure (altimeter): 29.88 in. Hg (1011 hPa)
ob: KAQO 140855Z AUTO 29010G16KT 10SM CLR 18/01 A2988 RMK AO2
cycle: 9
