Station name not available
Mar 14, 2019 - 04:55 AM EDT / 2019.03.14 0855 UTC
Wind: Calm:0
Visibility: 7 mile(s):0
Sky conditions: clear
Temperature: 57 F (14 C)
Dew Point: 55 F (13 C)
Relative Humidity: 93%
Pressure (altimeter): 30.2 in. Hg (1022 hPa)
ob: KARW 140855Z AUTO 00000KT 7SM CLR 14/13 A3020 RMK AO2
cycle: 9
