Appleton / Outagamie, WI, United States (KATW) 44-15N 088-31W
Mar 14, 2019 - 04:55 AM EDT / 2019.03.14 0855 UTC
Wind: from the SE (140 degrees) at 16 MPH (14 KT):0
Visibility: 10 mile(s):0
Sky conditions: overcast
Temperature: 41 F (5 C)
Dew Point: 41 F (5 C)
Relative Humidity: 100%
Pressure (altimeter): 29.44 in. Hg (996 hPa)
ob: KATW 140855Z AUTO 14014KT 10SM SCT010 OVC021 05/05 A2944 RMK AO2
cycle: 9
