Auburn, Auburn Municipal Airport, CA, United States (KAUN) 38-57N 121-04W
Mar 14, 2019 - 04:55 AM EDT / 2019.03.14 0855 UTC
Wind: Calm:0
Visibility: 10 mile(s):0
Sky conditions: clear
Temperature: 42 F (6 C)
Dew Point: 19 F (-7 C)
Relative Humidity: 38%
Pressure (altimeter): 30.21 in. Hg (1023 hPa)
ob: KAUN 140855Z AUTO 00000KT 10SM CLR 06/M07 A3021 RMK A01
cycle: 9
