Algona, IA, United States (KAXA) 43-05N 094-16W
Mar 14, 2019 - 04:55 AM EDT / 2019.03.14 0855 UTC
Wind: from the ESE (120 degrees) at 14 MPH (12 KT) gusting to 20 MPH (17 KT):0
Visibility: 4 mile(s):0
Sky conditions: mostly cloudy
Weather: mist
Temperature: 41 F (5 C)
Dew Point: 41 F (5 C)
Relative Humidity: 100%
Pressure (altimeter): 29.15 in. Hg (987 hPa)
ob: KAXA 140855Z AUTO 12012G17KT 4SM BR BKN002 BKN095 05/05 A2915 RMK AO2 PWINO
cycle: 9
