Station name not available
Mar 14, 2019 - 04:55 AM EDT / 2019.03.14 0855 UTC
Wind: from the SSW (200 degrees) at 7 MPH (6 KT):0
Visibility: 10 mile(s):0
Sky conditions: clear
Temperature: 23 F (-5 C)
Windchill: 14 F (-10 C):1
Dew Point: 19 F (-7 C)
Relative Humidity: 85%
Pressure (altimeter): 30.35 in. Hg (1027 hPa)
ob: KBDN 140855Z AUTO 20006KT 10SM CLR M05/M07 A3035 RMK AO2
cycle: 9
