Station name not available
Mar 14, 2019 - 04:55 AM EDT / 2019.03.14 0855 UTC
Wind: from the ESE (110 degrees) at 5 MPH (4 KT):0
Visibility: 10 mile(s):0
Sky conditions: overcast
Temperature: 62 F (17 C)
Dew Point: 55 F (13 C)
Relative Humidity: 77%
Pressure (altimeter): 30.1 in. Hg (1019 hPa)
ob: KBIJ 140855Z AUTO 11004KT 10SM OVC046 17/13 A3010 RMK AO2
cycle: 9
