BLYTHE AIRPORT, CA, United States (KBLH) 33-37N 114-43W 119M
Mar 14, 2019 - 04:52 AM EDT / 2019.03.14 0852 UTC
Wind: from the NNW (330 degrees) at 10 MPH (9 KT):0
Visibility: 10 mile(s):0
Sky conditions: clear
Temperature: 51.1 F (10.6 C)
Dew Point: 21.9 F (-5.6 C)
Relative Humidity: 31%
Pressure (altimeter): 30.15 in. Hg (1020 hPa)
Pressure tendency: 0.04 inches (1.5 hPa) higher than three hours ago
ob: KBLH 140852Z AUTO 33009KT 10SM CLR 11/M06 A3015 RMK AO2 SLP205 T01061056 53015
cycle: 9
