Boothville, LA, United States (KBVE) 29-20N 089-24W 1M
Mar 14, 2019 - 04:51 AM EDT / 2019.03.14 0851 UTC
Wind: Calm:0
Visibility: less than 1/4 mile(s):1
Sky conditions: obscured
Weather: fog
Temperature: 64.0 F (17.8 C)
Dew Point: 64.0 F (17.8 C)
Relative Humidity: 100%
Pressure (altimeter): 29.93 in. Hg (1013 hPa)
Pressure tendency: 0.01 inches (0.5 hPa) lower than three hours ago
ob: KBVE 140851Z AUTO 00000KT M1/4SM FG VV002 18/18 A2993 RMK AO2 SLP136 T01780178 55005 
cycle: 9
