Station name not available
Mar 14, 2019 - 04:55 AM EDT / 2019.03.14 0855 UTC
Wind: from the NNW (330 degrees) at 31 MPH (27 KT) gusting to 39 MPH (34 KT):0
Visibility: 10 mile(s):0
Sky conditions: overcast
Temperature: 26 F (-3 C)
Windchill: 8 F (-13 C):1
Dew Point: 23 F (-5 C)
Relative Humidity: 86%
Pressure (altimeter): 29.75 in. Hg (1007 hPa)
ob: KBWW 140855Z AUTO 33027G34KT 10SM OVC075 M03/M05 A2975 RMK AO2
cycle: 9
