Station name not available
Mar 14, 2019 - 04:55 AM EDT / 2019.03.14 0855 UTC
Wind: Calm:0
Visibility: 7 mile(s):0
Sky conditions: overcast
Temperature: 27.7 F (-2.4 C)
Dew Point: 27.3 F (-2.6 C)
Relative Humidity: 98%
Pressure (altimeter): 30.21 in. Hg (1023 hPa)
ob: KCDA 140855Z AUTO 00000KT 7SM OVC036 M02/M03 A3021 RMK AO2 T10241026
cycle: 9
