Station name not available
Mar 14, 2019 - 04:56 AM EDT / 2019.03.14 0856 UTC
Wind: Calm:0
Visibility: 10 mile(s):0
Sky conditions: clear
Temperature: 51.3 F (10.7 C)
Dew Point: 33.8 F (1.0 C)
Relative Humidity: 51%
Pressure (altimeter): 29.99 in. Hg (1015 hPa)
ob: KCDI 140856Z AUTO 00000KT 10SM CLR 11/01 A2999 RMK AO2 T01070010
cycle: 9
