Station name not available
Mar 14, 2019 - 04:55 AM EDT / 2019.03.14 0855 UTC
Wind: Calm:0
Visibility: 10 mile(s):0
Sky conditions: clear
Temperature: 46 F (8 C)
Dew Point: 44 F (7 C)
Relative Humidity: 93%
Pressure (altimeter): 30.23 in. Hg (1023 hPa)
ob: KCDN 140855Z AUTO 00000KT 10SM CLR 08/07 A3023 RMK AO2
cycle: 9
