Cleveland / Cuyahoga, OH, United States (KCGF) 41-34N 081-29W
Mar 13, 2019 - 10:45 PM EDT / 2019.03.14 0245 UTC
Wind: from the SSE (150 degrees) at 12 MPH (10 KT):0
Visibility: 10 mile(s):0
Sky conditions: clear
Temperature: 53 F (12 C)
Dew Point: 33 F (1 C)
Relative Humidity: 46%
Pressure (altimeter): 29.99 in. Hg (1015 hPa)
ob: KCGF 140245Z 15010KT 10SM SKC 12/01 A2999 
cycle: 3
