Chesapeake, Chesapeake Municipal Airport, VA, United States (KCPK) 36-39-56N 076-19-14W
Mar 14, 2019 - 04:55 AM EDT / 2019.03.14 0855 UTC
Wind: Calm:0
Visibility: 7 mile(s):0
Sky conditions: clear
Temperature: 40.5 F (4.7 C)
Dew Point: 37.9 F (3.3 C)
Relative Humidity: 90%
Pressure (altimeter): 30.27 in. Hg (1025 hPa)
ob: KCPK 140855Z AUTO 00000KT 7SM CLR 05/03 A3027 RMK AO2 T00470033
cycle: 9
