JACKSONVILLE CRAIG MUN, FL, United States (KCRG) 30-20N 81-31W 13M
Mar 14, 2019 - 04:53 AM EDT / 2019.03.14 0853 UTC
Wind: from the SE (130 degrees) at 3 MPH (3 KT):0
Visibility: 10 mile(s):0
Sky conditions: clear
Temperature: 63.0 F (17.2 C)
Dew Point: 60.1 F (15.6 C)
Relative Humidity: 90%
Pressure (altimeter): 30.15 in. Hg (1020 hPa)
Pressure tendency: 0.03 inches (1.1 hPa) lower than three hours ago
ob: KCRG 140853Z AUTO 13003KT 10SM CLR 17/16 A3015 RMK AO2 SLP207 T01720156 55011
cycle: 9
