Station name not available
Mar 14, 2019 - 04:55 AM EDT / 2019.03.14 0855 UTC
Wind: Calm:0
Visibility: 5 mile(s):0
Sky conditions: clear
Weather: mist
Temperature: 52.9 F (11.6 C)
Dew Point: 52.2 F (11.2 C)
Relative Humidity: 97%
Pressure (altimeter): 30.19 in. Hg (1022 hPa)
ob: KCWV 140855Z AUTO 00000KT 5SM BR CLR 12/11 A3019 RMK AO2 T01160112
cycle: 9
