Station name not available
Mar 14, 2019 - 04:55 AM EDT / 2019.03.14 0855 UTC
Wind: from the N (350 degrees) at 6 MPH (5 KT):0
Visibility: 10 mile(s):0
Sky conditions: clear
Temperature: 66 F (19 C)
Dew Point: 39 F (4 C)
Relative Humidity: 37%
Pressure (altimeter): 29.76 in. Hg (1007 hPa)
ob: KCZT 140855Z AUTO 35005KT 10SM CLR 19/04 A2976 RMK AO2
cycle: 9
