Station name not available
Mar 14, 2019 - 04:55 AM EDT / 2019.03.14 0855 UTC
Wind: from the SE (140 degrees) at 5 MPH (4 KT):0
Visibility: 10 mile(s):0
Sky conditions: clear
Temperature: 43.7 F (6.5 C)
Dew Point: 32.4 F (0.2 C)
Relative Humidity: 64%
Pressure (altimeter): 29.81 in. Hg (1009 hPa)
ob: KD95 140855Z AUTO 14004KT 10SM CLR 07/00 A2981 RMK AO2 T00650002
cycle: 9
