De Kalb, De Kalb Taylor Municipal Airport, IL, United States (KDKB) 41-55-55N 088-42-30W
Mar 14, 2019 - 04:55 AM EDT / 2019.03.14 0855 UTC
Wind: from the S (170 degrees) at 18 MPH (16 KT) gusting to 26 MPH (23 KT):0
Visibility: 10 mile(s):0
Sky conditions: overcast
Temperature: 53 F (12 C)
Dew Point: 51 F (11 C)
Relative Humidity: 93%
Pressure (altimeter): 29.5 in. Hg (998 hPa)
ob: KDKB 140855Z AUTO 17016G23KT 10SM BKN011 OVC015 12/11 A2950 RMK AO2
cycle: 9
