Laughlin, Laughlin Air Force Base Auxiliary Airfield, TX, United States (KDLF) 29-07-00N 100-28-00W 294M
Mar 14, 2019 - 02:56 AM EDT / 2019.03.14 0656 UTC
Wind: from the NNE (030 degrees) at 8 MPH (7 KT):0
Visibility: 10 mile(s):0
Sky conditions: clear
Temperature: 64.4 F (18.0 C)
Dew Point: 38.8 F (3.8 C)
Relative Humidity: 38%
Pressure (altimeter): 29.74 in. Hg (1007 hPa)
ob: KDLF 140656Z AUTO 03007KT 10SM CLR 18/04 A2974 RMK AO2 SLP061 T01800038 RVRNO 
cycle: 7
