Detroit Lakes, Detroit Lakes Airport-Wething Field, MN, United States (KDTL) 46-50N 095-53W
Mar 14, 2019 - 04:55 AM EDT / 2019.03.14 0855 UTC
Wind: from the N (360 degrees) at 5 MPH (4 KT):0
Visibility: 3 mile(s):0
Sky conditions: overcast
Weather: mist
Temperature: 35 F (2 C)
Windchill: 30 F (-1 C):1
Dew Point: 35 F (2 C)
Relative Humidity: 100%
Pressure (altimeter): 29.35 in. Hg (993 hPa)
ob: KDTL 140855Z AUTO 36004KT 3SM BR OVC005 02/02 A2935 RMK AO2
cycle: 9
