BISBEE DOUGLAS INTERNATIONAL  AIRPORT , AZ, United States (KDUG) 31-28N 109-36W
Mar 14, 2019 - 04:56 AM EDT / 2019.03.14 0856 UTC
Wind: from the NNW (330 degrees) at 15 MPH (13 KT):0
Sky conditions: overcast
Temperature: 42.1 F (5.6 C)
Dew Point: 21.0 F (-6.1 C)
Relative Humidity: 42%
Pressure (altimeter): 30.07 in. Hg (1018 hPa)
Pressure tendency: 0.02 inches (0.8 hPa) higher than three hours ago
ob: KDUG 140856Z AUTO 33013KT OVC048 06/M06 A3007 RMK AO2 SLP158 T00561061 51008
cycle: 9
