PHOENIX-DEER VALLEY MUN, AZ, United States (KDVT) 33-41N 112-04W 443M
Mar 14, 2019 - 04:53 AM EDT / 2019.03.14 0853 UTC
Wind: Calm:0
Visibility: 10 mile(s):0
Sky conditions: clear
Temperature: 41.0 F (5.0 C)
Dew Point: 30.0 F (-1.1 C)
Relative Humidity: 64%
Pressure (altimeter): 30.09 in. Hg (1018 hPa)
Pressure tendency: 0.03 inches (1.1 hPa) higher than three hours ago
ob: KDVT 140853Z AUTO 00000KT 10SM CLR 05/M01 A3009 RMK AO2 SLP181 T00501011 51011
cycle: 9
