DANBURY MUNICIPAL AIRPORT, CT, United States (KDXR) 41-22N 073-29W 139M
Mar 14, 2019 - 04:53 AM EDT / 2019.03.14 0853 UTC
Wind: Calm:0
Visibility: 10 mile(s):0
Sky conditions: overcast
Temperature: 36.0 F (2.2 C)
Dew Point: 28.9 F (-1.7 C)
Relative Humidity: 75%
Pressure (altimeter): 30.26 in. Hg (1024 hPa)
Pressure tendency: 0.01 inches (0.3 hPa) lower than three hours ago
ob: KDXR 140853Z AUTO 00000KT 10SM OVC055 02/M02 A3026 RMK AO2 SLP247 60000 T00221017 55003
cycle: 9
