Station name not available
Mar 14, 2019 - 04:55 AM EDT / 2019.03.14 0855 UTC
Wind: from the SSE (150 degrees) at 7 MPH (6 KT):0
Visibility: 10 mile(s):0
Sky conditions: overcast
Temperature: 68.0 F (20.0 C)
Dew Point: 61.9 F (16.6 C)
Relative Humidity: 80%
Pressure (altimeter): 29.97 in. Hg (1014 hPa)
ob: KDYA 140855Z AUTO 15006KT 10SM OVC016 20/17 A2997 RMK AO2 T02000166
cycle: 9
