Station name not available
Mar 14, 2019 - 04:55 AM EDT / 2019.03.14 0855 UTC
Wind: from the W (270 degrees) at 9 MPH (8 KT):0
Visibility: 10 mile(s):0
Sky conditions: clear
Temperature: 46.8 F (8.2 C)
Dew Point: 25.3 F (-3.7 C)
Relative Humidity: 42%
Pressure (altimeter): 29.9 in. Hg (1012 hPa)
ob: KE11 140855Z AUTO 27008KT 10SM CLR 08/M04 A2990 RMK AO2 T00821037
cycle: 9
