Belen Alexander Muni, NM, United States (KE80) 34-38-56N 106-49-54W
Nov 07, 2018 - 11:55 AM EST / 2018.11.07 1655 UTC
Wind: from the NNE (030 degrees) at 6 MPH (5 KT):0
Visibility: 10 mile(s):0
Sky conditions: clear
Temperature: 53.8 F (12.1 C)
Dew Point: 25.7 F (-3.5 C)
Relative Humidity: 33%
Pressure (altimeter): 30.15 in. Hg (1020 hPa)
ob: KE80 071655Z AUTO 03005KT 10SM CLR 12/M03 A3015 RMK AO2 T01211035
cycle: 17
