Webster City, IA, United States (KEBS) 42-26N 093-52W
Mar 14, 2019 - 04:55 AM EDT / 2019.03.14 0855 UTC
Wind: from the SE (130 degrees) at 16 MPH (14 KT):0
Visibility: 10 mile(s):0
Sky conditions: overcast
Temperature: 41 F (5 C)
Dew Point: 41 F (5 C)
Relative Humidity: 100%
Pressure (altimeter): 29.14 in. Hg (986 hPa)
ob: KEBS 140855Z AUTO 13014KT 10SM SCT090 OVC120 05/05 A2914 RMK AO2
cycle: 9
