Elkhart, Elkhart-Morton County Airport, KS, United States (KEHA) 37-00N 101-53W
Mar 14, 2019 - 04:55 AM EDT / 2019.03.14 0855 UTC
Wind: from the NW (310 degrees) at 26 MPH (23 KT) gusting to 39 MPH (34 KT):0
Visibility: 10 mile(s):0
Sky conditions: clear
Temperature: 35.4 F (1.9 C)
Dew Point: 30.2 F (-1.0 C)
Relative Humidity: 81%
Pressure (altimeter): 29.71 in. Hg (1006 hPa)
ob: KEHA 140855Z AUTO 31023G34KT 10SM CLR 02/M01 A2971 RMK AO2 T00191010
cycle: 9
