Shelby, Shelby Municipal Airport, NC, United States (KEHO) 35-15N 081-36W
Mar 14, 2019 - 05:00 AM EDT / 2019.03.14 0900 UTC
Wind: Calm:0
Visibility: 10 mile(s):0
Sky conditions: overcast
Temperature: 51.3 F (10.7 C)
Dew Point: 45.1 F (7.3 C)
Relative Humidity: 79%
Pressure (altimeter): 30.21 in. Hg (1023 hPa)
ob: KEHO 140900Z AUTO 00000KT 10SM OVC035 11/07 A3021 RMK AO2 T01070073
cycle: 9
