Station name not available
Mar 14, 2019 - 04:55 AM EDT / 2019.03.14 0855 UTC
Wind: from the WNW (290 degrees) at 17 MPH (15 KT) gusting to 31 MPH (27 KT):0
Visibility: 10 mile(s):0
Sky conditions: clear
Temperature: 42.3 F (5.7 C)
Dew Point: 27.5 F (-2.5 C)
Relative Humidity: 55%
Pressure (altimeter): 29.67 in. Hg (1004 hPa)
ob: KELK 140855Z AUTO 29015G27KT 10SM CLR 06/M02 A2967 RMK AO2 T00571025
cycle: 9
