MONROE AIRPORT, NC, United States (KEQY) 35-01N 080-37W 212M
Mar 14, 2019 - 04:53 AM EDT / 2019.03.14 0853 UTC
Wind: Calm:0
Visibility: 10 mile(s):0
Sky conditions: clear
Temperature: 48.0 F (8.9 C)
Dew Point: 44.1 F (6.7 C)
Relative Humidity: 86%
Pressure (altimeter): 30.22 in. Hg (1023 hPa)
Pressure tendency: 0.04 inches (1.2 hPa) lower than three hours ago
ob: KEQY 140853Z AUTO 00000KT 10SM CLR 09/07 A3022 RMK AO2 SLP242 T00890067 58012
cycle: 9
