NEWARK INTERNATIONAL  AIRPORT, NJ, United States (KEWR) 40-41N 74-10W 7M
Mar 14, 2019 - 04:51 AM EDT / 2019.03.14 0851 UTC
Wind: Calm:0
Visibility: 10 mile(s):0
Sky conditions: mostly cloudy
Temperature: 43.0 F (6.1 C)
Dew Point: 25.0 F (-3.9 C)
Relative Humidity: 48%
Pressure (altimeter): 30.24 in. Hg (1024 hPa)
Pressure tendency: 0.02 inches (0.7 hPa) lower than three hours ago
ob: KEWR 140851Z 00000KT 10SM BKN060 06/M04 A3024 RMK AO2 SLP239 T00611039 56007
cycle: 9
