Station name not available
Mar 14, 2019 - 04:55 AM EDT / 2019.03.14 0855 UTC
Wind: from the N (360 degrees) at 6 MPH (5 KT):0
Visibility: 10 mile(s):0
Sky conditions: clear
Temperature: 44 F (7 C)
Dew Point: 42 F (6 C)
Relative Humidity: 93%
Pressure (altimeter): 30.13 in. Hg (1020 hPa)
ob: KF70 140855Z AUTO 36005KT 10SM CLR 07/06 A3013 RMK AO1
cycle: 9
