Frederick, Frederick Municipal Airport, MD, United States (KFDK) 39-25-03N 077-22-28W
Mar 14, 2019 - 05:05 AM EDT / 2019.03.14 0905 UTC
Wind: Calm:0
Visibility: 10 mile(s):0
Sky conditions: clear
Temperature: 37 F (3 C)
Dew Point: 33 F (1 C)
Relative Humidity: 86%
Pressure (altimeter): 30.18 in. Hg (1022 hPa)
ob: KFDK 140905Z AUTO 00000KT 10SM CLR 03/01 A3018 RMK AO2
cycle: 9
