Station name not available
Mar 13, 2019 - 06:48 AM EDT / 2019.03.13 1048 UTC
Wind: from the N (360 degrees) at 13 MPH (11 KT):0
Visibility: 2 1/2 mile(s):0
Sky conditions: overcast
Weather: light rain; mist
Temperature: 33 F (1 C)
Windchill: 23 F (-5 C):1
Dew Point: 33 F (1 C)
Relative Humidity: 100%
Pressure (altimeter): 29.27 in. Hg (991 hPa)
ob: KFEW 131048Z AUTO 36011KT 2 1/2SM -RA BR OVC005 01/01 A2927 RMK AO2 VIS 2 1/2V4 RAB34 SLP885 PNO 
cycle: 11
