Fair Field, IA, United States (KFFL) 41-03N 091-59W
Mar 14, 2019 - 04:55 AM EDT / 2019.03.14 0855 UTC
Wind: from the SSE (160 degrees) at 21 MPH (18 KT) gusting to 28 MPH (24 KT):0
Visibility: 10 mile(s):0
Sky conditions: overcast
Temperature: 53 F (12 C)
Dew Point: 46 F (8 C)
Relative Humidity: 76%
Pressure (altimeter): 29.28 in. Hg (991 hPa)
ob: KFFL 140855Z AUTO 16018G24KT 10SM SCT120 OVC140 12/08 A2928 RMK AO2 PWINO
cycle: 9
