Fergus Falls, Fergus Falls Municipal Airport-Einar Mickelson Field, MN, United States (KFFM) 46-17N 096-09W
Mar 14, 2019 - 04:56 AM EDT / 2019.03.14 0856 UTC
Wind: from the N (360 degrees) at 7 MPH (6 KT):0
Visibility: 3 mile(s):0
Sky conditions: overcast
Weather: mist
Temperature: 35 F (2 C)
Windchill: 28 F (-2 C):1
Dew Point: 35 F (2 C)
Relative Humidity: 100%
Pressure (altimeter): 29.31 in. Hg (992 hPa)
ob: KFFM 140856Z AUTO 36006KT 3SM BR OVC003 02/02 A2931 RMK AO2
cycle: 9
