Station name not available
Mar 14, 2019 - 04:55 AM EDT / 2019.03.14 0855 UTC
Wind: from the SSE (160 degrees) at 13 MPH (11 KT) gusting to 20 MPH (17 KT):0
Visibility: 7 mile(s):0
Sky conditions: overcast
Temperature: 53 F (12 C)
Dew Point: 44 F (7 C)
Relative Humidity: 71%
Pressure (altimeter): 29.76 in. Hg (1007 hPa)
ob: KFRH 140855Z AUTO 16011G17KT 7SM BKN034 BKN050 OVC060 12/07 A2976 RMK AO1
cycle: 9
