Station name not available
Mar 14, 2019 - 04:55 AM EDT / 2019.03.14 0855 UTC
Wind: from the NW (310 degrees) at 10 MPH (9 KT):0
Visibility: 10 mile(s):0
Sky conditions: clear
Temperature: 64 F (18 C)
Dew Point: 42 F (6 C)
Relative Humidity: 45%
Pressure (altimeter): 29.75 in. Hg (1007 hPa)
ob: KFTN 140855Z AUTO 31009KT 10SM CLR 18/06 A2975 RMK A01
cycle: 9
