West Point, Middle Peninsula Regional Airport, VA, United States (KFYJ) 37-31-16N 076-45-52W
Mar 14, 2019 - 04:55 AM EDT / 2019.03.14 0855 UTC
Wind: from the SSE (160 degrees) at 7 MPH (6 KT):0
Visibility: 10 mile(s):0
Sky conditions: clear
Temperature: 45.5 F (7.5 C)
Dew Point: 35.6 F (2.0 C)
Relative Humidity: 68%
Pressure (altimeter): 30.25 in. Hg (1024 hPa)
ob: KFYJ 140855Z AUTO 16006KT 10SM CLR 08/02 A3025 RMK AO1 T00750020
cycle: 9
